[{"OBJECT_NAME":"STARLINK-33933","OBJECT_ID":"2025-091K","EPOCH":"2025-10-30T01:23:36.511872","MEAN_MOTION":15.27609652,"ECCENTRICITY":0.00025475,"INCLINATION":42.9976,"RA_OF_ASC_NODE":63.3255,"ARG_OF_PERICENTER":283.7578,"MEAN_ANOMALY":76.299,"EPHEMERIS_TYPE":0,"CLASSIFICATION_TYPE":"U","NORAD_CAT_ID":63784,"ELEMENT_SET_NO":999,"REV_AT_EPOCH":2911,"BSTAR":0.0011395869,"MEAN_MOTION_DOT":0.0003126,"MEAN_MOTION_DDOT":0},{"OBJECT_NAME":"STARLINK-33906","OBJECT_ID":"2025-091L","EPOCH":"2025-10-30T01:33:18.314784","MEAN_MOTION":15.27564344,"ECCENTRICITY":0.00015041,"INCLINATION":43.0019,"RA_OF_ASC_NODE":70.331,"ARG_OF_PERICENTER":276.2019,"MEAN_ANOMALY":83.8662,"EPHEMERIS_TYPE":0,"CLASSIFICATION_TYPE":"U","NORAD_CAT_ID":63785,"ELEMENT_SET_NO":999,"REV_AT_EPOCH":2887,"BSTAR":0.0011989619,"MEAN_MOTION_DOT":0.00032862,"MEAN_MOTION_DDOT":0},{"OBJECT_NAME":"STARLINK-33923","OBJECT_ID":"2025-091M","EPOCH":"2025-10-30T01:31:27.213024","MEAN_MOTION":15.27585955,"ECCENTRICITY":5.743e-5,"INCLINATION":43.0024,"RA_OF_ASC_NODE":70.3214,"ARG_OF_PERICENTER":296.6835,"MEAN_ANOMALY":63.3958,"EPHEMERIS_TYPE":0,"CLASSIFICATION_TYPE":"U","NORAD_CAT_ID":63786,"ELEMENT_SET_NO":999,"REV_AT_EPOCH":2887,"BSTAR":0.0014035633,"MEAN_MOTION_DOT":0.0003857,"MEAN_MOTION_DDOT":0},{"OBJECT_NAME":"STARLINK-33947","OBJECT_ID":"2025-091N","EPOCH":"2025-10-30T02:02:54.823200","MEAN_MOTION":15.27589754,"ECCENTRICITY":0.0001908,"INCLINATION":43.0024,"RA_OF_ASC_NODE":70.4845,"ARG_OF_PERICENTER":278.7833,"MEAN_ANOMALY":81.2803,"EPHEMERIS_TYPE":0,"CLASSIFICATION_TYPE":"U","NORAD_CAT_ID":63787,"ELEMENT_SET_NO":999,"REV_AT_EPOCH":2892,"BSTAR":0.0011705069,"MEAN_MOTION_DOT":0.00032098,"MEAN_MOTION_DDOT":0},{"OBJECT_NAME":"STARLINK-33882","OBJECT_ID":"2025-091P","EPOCH":"2025-10-30T01:20:20.738976","MEAN_MOTION":15.27590383,"ECCENTRICITY":0.00013742,"INCLINATION":42.9993,"RA_OF_ASC_NODE":70.2574,"ARG_OF_PERICENTER":280.1114,"MEAN_ANOMALY":79.9582,"EPHEMERIS_TYPE":0,"CLASSIFICATION_TYPE":"U","NORAD_CAT_ID":63788,"ELEMENT_SET_NO":999,"REV_AT_EPOCH":2891,"BSTAR":0.0012761067,"MEAN_MOTION_DOT":0.00035032,"MEAN_MOTION_DDOT":0},{"OBJECT_NAME":"STARLINK-33875","OBJECT_ID":"2025-091Q","EPOCH":"2025-10-30T01:03:43.013376","MEAN_MOTION":15.27594297,"ECCENTRICITY":0.00025314,"INCLINATION":42.9999,"RA_OF_ASC_NODE":70.1689,"ARG_OF_PERICENTER":272.5829,"MEAN_ANOMALY":87.4733,"EPHEMERIS_TYPE":0,"CLASSIFICATION_TYPE":"U","NORAD_CAT_ID":63789,"ELEMENT_SET_NO":999,"REV_AT_EPOCH":2892,"BSTAR":0.0011176741,"MEAN_MOTION_DOT":0.00030637,"MEAN_MOTION_DDOT":0},{"OBJECT_NAME":"STARLINK-33869","OBJECT_ID":"2025-091R","EPOCH":"2025-10-29T18:37:48.828576","MEAN_MOTION":15.27611734,"ECCENTRICITY":0.00018258,"INCLINATION":43.0028,"RA_OF_ASC_NODE":71.6002,"ARG_OF_PERICENTER":270.8441,"MEAN_ANOMALY":89.2201,"EPHEMERIS_TYPE":0,"CLASSIFICATION_TYPE":"U","NORAD_CAT_ID":63790,"ELEMENT_SET_NO":999,"REV_AT_EPOCH":2883,"BSTAR":0.0011103469,"MEAN_MOTION_DOT":0.00030448,"MEAN_MOTION_DDOT":0},{"OBJECT_NAME":"STARLINK-33935","OBJECT_ID":"2025-091S","EPOCH":"2025-10-30T01:57:21.120480","MEAN_MOTION":15.27597551,"ECCENTRICITY":0.00010101,"INCLINATION":43.0008,"RA_OF_ASC_NODE":70.4564,"ARG_OF_PERICENTER":280.5299,"MEAN_ANOMALY":79.5439,"EPHEMERIS_TYPE":0,"CLASSIFICATION_TYPE":"U","NORAD_CAT_ID":63791,"ELEMENT_SET_NO":999,"REV_AT_EPOCH":2903,"BSTAR":0.00054978323,"MEAN_MOTION_DOT":0.00014905,"MEAN_MOTION_DDOT":0},{"OBJECT_NAME":"STARLINK-33916","OBJECT_ID":"2025-091T","EPOCH":"2025-10-30T01:51:48.208320","MEAN_MOTION":15.27591248,"ECCENTRICITY":0.00012351,"INCLINATION":43.0021,"RA_OF_ASC_NODE":70.4254,"ARG_OF_PERICENTER":271.0387,"MEAN_ANOMALY":89.0323,"EPHEMERIS_TYPE":0,"CLASSIFICATION_TYPE":"U","NORAD_CAT_ID":63792,"ELEMENT_SET_NO":999,"REV_AT_EPOCH":2892,"BSTAR":0.0014676796,"MEAN_MOTION_DOT":0.0004036,"MEAN_MOTION_DDOT":0},{"OBJECT_NAME":"STARLINK-33925","OBJECT_ID":"2025-091U","EPOCH":"2025-10-30T00:59:58.788096","MEAN_MOTION":15.27605348,"ECCENTRICITY":0.000363,"INCLINATION":42.9993,"RA_OF_ASC_NODE":70.1515,"ARG_OF_PERICENTER":266.6128,"MEAN_ANOMALY":93.4308,"EPHEMERIS_TYPE":0,"CLASSIFICATION_TYPE":"U","NORAD_CAT_ID":63793,"ELEMENT_SET_NO":999,"REV_AT_EPOCH":2903,"BSTAR":0.00094726688,"MEAN_MOTION_DOT":0.0002592,"MEAN_MOTION_DDOT":0},{"OBJECT_NAME":"STARLINK-33870","OBJECT_ID":"2025-091V","EPOCH":"2025-10-29T18:34:06.814272","MEAN_MOTION":15.27625694,"ECCENTRICITY":0.00018749,"INCLINATION":43.0016,"RA_OF_ASC_NODE":71.5837,"ARG_OF_PERICENTER":263.1246,"MEAN_ANOMALY":96.9393,"EPHEMERIS_TYPE":0,"CLASSIFICATION_TYPE":"U","NORAD_CAT_ID":63794,"ELEMENT_SET_NO":999,"REV_AT_EPOCH":2888,"BSTAR":0.0016472682,"MEAN_MOTION_DOT":0.00045411,"MEAN_MOTION_DDOT":0},{"OBJECT_NAME":"STARLINK-33867","OBJECT_ID":"2025-091W","EPOCH":"2025-10-30T01:40:42.259584","MEAN_MOTION":15.27585127,"ECCENTRICITY":9.287e-5,"INCLINATION":43.0022,"RA_OF_ASC_NODE":70.3682,"ARG_OF_PERICENTER":273.9043,"MEAN_ANOMALY":86.1702,"EPHEMERIS_TYPE":0,"CLASSIFICATION_TYPE":"U","NORAD_CAT_ID":63795,"ELEMENT_SET_NO":999,"REV_AT_EPOCH":2892,"BSTAR":0.0012022678,"MEAN_MOTION_DOT":0.00032975,"MEAN_MOTION_DDOT":0},{"OBJECT_NAME":"STARLINK-33918","OBJECT_ID":"2025-091X","EPOCH":"2025-10-29T17:51:46.179936","MEAN_MOTION":15.27619981,"ECCENTRICITY":0.00020708,"INCLINATION":43.0011,"RA_OF_ASC_NODE":72.2264,"ARG_OF_PERICENTER":274.0779,"MEAN_ANOMALY":85.9836,"EPHEMERIS_TYPE":0,"CLASSIFICATION_TYPE":"U","NORAD_CAT_ID":63796,"ELEMENT_SET_NO":999,"REV_AT_EPOCH":2892,"BSTAR":0.001730491,"MEAN_MOTION_DOT":0.00047725,"MEAN_MOTION_DDOT":0},{"OBJECT_NAME":"STARLINK-33712","OBJECT_ID":"2025-091Y","EPOCH":"2025-10-30T01:34:28.054272","MEAN_MOTION":15.2760024,"ECCENTRICITY":0.00011257,"INCLINATION":43.0011,"RA_OF_ASC_NODE":73.8551,"ARG_OF_PERICENTER":287.0581,"MEAN_ANOMALY":73.0147,"EPHEMERIS_TYPE":0,"CLASSIFICATION_TYPE":"U","NORAD_CAT_ID":63797,"ELEMENT_SET_NO":999,"REV_AT_EPOCH":2888,"BSTAR":0.00066505141,"MEAN_MOTION_DOT":0.00018095,"MEAN_MOTION_DDOT":0},{"OBJECT_NAME":"STARLINK-33827","OBJECT_ID":"2025-091Z","EPOCH":"2025-10-30T01:25:53.805792","MEAN_MOTION":15.27596318,"ECCENTRICITY":0.00012454,"INCLINATION":42.9981,"RA_OF_ASC_NODE":70.2895,"ARG_OF_PERICENTER":279.0524,"MEAN_ANOMALY":81.0187,"EPHEMERIS_TYPE":0,"CLASSIFICATION_TYPE":"U","NORAD_CAT_ID":63798,"ELEMENT_SET_NO":999,"REV_AT_EPOCH":2892,"BSTAR":0.0015261926,"MEAN_MOTION_DOT":0.00041996,"MEAN_MOTION_DDOT":0},{"OBJECT_NAME":"STARLINK-33899","OBJECT_ID":"2025-091AA","EPOCH":"2025-10-30T01:14:47.778432","MEAN_MOTION":15.27586323,"ECCENTRICITY":9.501e-5,"INCLINATION":43.0059,"RA_OF_ASC_NODE":70.225,"ARG_OF_PERICENTER":281.3023,"MEAN_ANOMALY":78.7722,"EPHEMERIS_TYPE":0,"CLASSIFICATION_TYPE":"U","NORAD_CAT_ID":63799,"ELEMENT_SET_NO":999,"REV_AT_EPOCH":2903,"BSTAR":0.001219191,"MEAN_MOTION_DOT":0.00033446,"MEAN_MOTION_DDOT":0}]
