STARLINK-33933          
1 63784U 25091K   25303.05806148  .00031260  00000+0  11396-2 0  9993
2 63784  42.9976  63.3255 0002547 283.7578  76.2990 15.27609652 29118
STARLINK-33906          
1 63785U 25091L   25303.06479531  .00032862  00000+0  11990-2 0  9996
2 63785  43.0019  70.3310 0001504 276.2019  83.8662 15.27564344 28878
STARLINK-33923          
1 63786U 25091M   25303.06350941  .00038570  00000+0  14036-2 0  9996
2 63786  43.0024  70.3214 0000574 296.6835  63.3958 15.27585955 28878
STARLINK-33947          
1 63787U 25091N   25303.08535675  .00032098  00000+0  11705-2 0  9997
2 63787  43.0024  70.4845 0001908 278.7833  81.2803 15.27589754 28926
STARLINK-33882          
1 63788U 25091P   25303.05579559  .00035032  00000+0  12761-2 0  9998
2 63788  42.9993  70.2574 0001374 280.1114  79.9582 15.27590383 28910
STARLINK-33875          
1 63789U 25091Q   25303.04424784  .00030637  00000+0  11177-2 0  9993
2 63789  42.9999  70.1689 0002531 272.5829  87.4733 15.27594297 28928
STARLINK-33869          
1 63790U 25091R   25302.77625959  .00030448  00000+0  11103-2 0  9990
2 63790  43.0028  71.6002 0001825 270.8441  89.2201 15.27611734 28832
STARLINK-33935          
1 63791U 25091S   25303.08149445  .00014905  00000+0  54978-3 0  9995
2 63791  43.0008  70.4564 0001010 280.5299  79.5439 15.27597551 29034
STARLINK-33916          
1 63792U 25091T   25303.07764130  .00040360  00000+0  14677-2 0  9994
2 63792  43.0021  70.4254 0001235 271.0387  89.0323 15.27591248 28920
STARLINK-33925          
1 63793U 25091U   25303.04165264  .00025920  00000+0  94727-3 0  9995
2 63793  42.9993  70.1515 0003630 266.6128  93.4308 15.27605348 29030
STARLINK-33870          
1 63794U 25091V   25302.77368998  .00045411  00000+0  16473-2 0  9992
2 63794  43.0016  71.5837 0001874 263.1246  96.9393 15.27625694 28882
STARLINK-33867          
1 63795U 25091W   25303.06993356  .00032975  00000+0  12023-2 0  9996
2 63795  43.0022  70.3682 0000928 273.9043  86.1702 15.27585127 28924
STARLINK-33918          
1 63796U 25091X   25302.74428449  .00047725  00000+0  17305-2 0  9994
2 63796  43.0011  72.2264 0002070 274.0779  85.9836 15.27619981 28929
STARLINK-33712          
1 63797U 25091Y   25303.06560248  .00018095  00000+0  66505-3 0  9990
2 63797  43.0011  73.8551 0001125 287.0581  73.0147 15.27600240 28887
STARLINK-33827          
1 63798U 25091Z   25303.05965053  .00041996  00000+0  15262-2 0  9992
2 63798  42.9981  70.2895 0001245 279.0524  81.0187 15.27596318 28923
STARLINK-33899          
1 63799U 25091AA  25303.05194188  .00033446  00000+0  12192-2 0  9996
2 63799  43.0059  70.2250 0000950 281.3023  78.7722 15.27586323 29035
